{"type": "FeatureCollection", "features": [ {"type": "Feature", "properties": {"norad_id": 43010, "name": "FENGYUN 3D", "group": "weather", "lat": 45.99162961628388, "lon": 152.8796779664721, "alt_km": 821.3983395082605, "timestamp": "2025-12-22T23:36:20.342249+00:00", "meta": {"OBJECT_NAME": "FENGYUN 3D", "OBJECT_ID": "2017-072A", "EPOCH": "2025-12-22T14:31:23.256192", "MEAN_MOTION": 14.19687066, "ECCENTRICITY": 0.00014153, "INCLINATION": 98.9903, "RA_OF_ASC_NODE": 323.0629, "ARG_OF_PERICENTER": 154.2824, "MEAN_ANOMALY": 205.8422, "EPHEMERIS_TYPE": 0, "CLASSIFICATION_TYPE": "U", "NORAD_CAT_ID": 43010, "ELEMENT_SET_NO": 999, "REV_AT_EPOCH": 41993, "BSTAR": 0.00012497345, "MEAN_MOTION_DOT": 2.18e-06, "MEAN_MOTION_DDOT": 0}, "tle": {"line1": "1 43010U 17072A   25356.60513028  .00000218  00000+0  12497-3 0  9997", "line2": "2 43010  98.9903 323.0629 0001415 154.2824 205.8422 14.19687066419937"}}, "geometry": {"type": "Point", "coordinates": [152.8796779664721, 45.99162961628388]}}, {"type": "Feature", "properties": {"norad_id": 43013, "name": "NOAA 20 (JPSS-1)", "group": "weather", "lat": -77.13029156497241, "lon": -24.378898814584545, "alt_km": 835.6111616849057, "timestamp": "2025-12-22T23:36:20.342260+00:00", "meta": {"OBJECT_NAME": "NOAA 20 (JPSS-1)", "OBJECT_ID": "2017-073A", "EPOCH": "2025-12-22T13:50:04.924896", "MEAN_MOTION": 14.19528174, "ECCENTRICITY": 0.00021195, "INCLINATION": 98.7613, "RA_OF_ASC_NODE": 292.7661, "ARG_OF_PERICENTER": 73.0984, "MEAN_ANOMALY": 287.0424, "EPHEMERIS_TYPE": 0, "CLASSIFICATION_TYPE": "U", "NORAD_CAT_ID": 43013, "ELEMENT_SET_NO": 999, "REV_AT_EPOCH": 41941, "BSTAR": 6.0053278e-05, "MEAN_MOTION_DOT": 8.3e-07, "MEAN_MOTION_DDOT": 0}, "tle": {"line1": "1 43013U 17073A   25356.57644589  .00000083  00000+0  60053-4 0  9996", "line2": "2 43013  98.7613 292.7661 0002119  73.0984 287.0424 14.19528174419412"}}, "geometry": {"type": "Point", "coordinates": [-24.378898814584545, -77.13029156497241]}}, {"type": "Feature", "properties": {"norad_id": 43226, "name": "GOES 17", "group": "weather", "lat": -0.48649137739774573, "lon": -3.6110903629827416, "alt_km": 35782.90201708312, "timestamp": "2025-12-22T23:36:20.342274+00:00", "meta": {"OBJECT_NAME": "GOES 17", "OBJECT_ID": "2018-022A", "EPOCH": "2025-12-22T11:01:35.410368", "MEAN_MOTION": 1.00273476, "ECCENTRICITY": 0.00030248, "INCLINATION": 0.4812, "RA_OF_ASC_NODE": 89.105, "ARG_OF_PERICENTER": 189.9361, "MEAN_ANOMALY": 248.1131, "EPHEMERIS_TYPE": 0, "CLASSIFICATION_TYPE": "U", "NORAD_CAT_ID": 43226, "ELEMENT_SET_NO": 999, "REV_AT_EPOCH": 2865, "BSTAR": 0, "MEAN_MOTION_DOT": -1.61e-06, "MEAN_MOTION_DDOT": 0}, "tle": {"line1": "1 43226U 18022A   25356.45943762 -.00000161  00000+0  00000+0 0  9998", "line2": "2 43226   0.4812  89.1050 0003024 189.9361 248.1131  1.00273476 28654"}}, "geometry": {"type": "Point", "coordinates": [-3.6110903629827416, -0.48649137739774573]}}, {"type": "Feature", "properties": {"norad_id": 43491, "name": "FENGYUN 2H", "group": "weather", "lat": 2.5728810745581416, "lon": 165.17482561038585, "alt_km": 35784.65238878328, "timestamp": "2025-12-22T23:36:20.342294+00:00", "meta": {"OBJECT_NAME": "FENGYUN 2H", "OBJECT_ID": "2018-050A", "EPOCH": "2025-12-22T13:32:37.248864", "MEAN_MOTION": 1.00271007, "ECCENTRICITY": 0.00023655, "INCLINATION": 2.5747, "RA_OF_ASC_NODE": 81.2262, "ARG_OF_PERICENTER": 166.1147, "MEAN_ANOMALY": 126.5288, "EPHEMERIS_TYPE": 0, "CLASSIFICATION_TYPE": "U", "NORAD_CAT_ID": 43491, "ELEMENT_SET_NO": 999, "REV_AT_EPOCH": 2766, "BSTAR": 0, "MEAN_MOTION_DOT": -1.09e-06, "MEAN_MOTION_DDOT": 0}, "tle": {"line1": "1 43491U 18050A   25356.56432001 -.00000109  00000+0  00000+0 0  9996", "line2": "2 43491   2.5747  81.2262 0002365 166.1147 126.5288  1.00271007 27662"}}, "geometry": {"type": "Point", "coordinates": [165.17482561038585, 2.5728810745581416]}}, {"type": "Feature", "properties": {"norad_id": 43689, "name": "METOP-C", "group": "weather", "lat": 46.60740337391113, "lon": -116.0931632656111, "alt_km": 816.4042504942781, "timestamp": "2025-12-22T23:36:20.342306+00:00", "meta": {"OBJECT_NAME": "METOP-C", "OBJECT_ID": "2018-087A", "EPOCH": "2025-12-22T12:50:52.899072", "MEAN_MOTION": 14.21488011, "ECCENTRICITY": 7.696e-05, "INCLINATION": 98.6915, "RA_OF_ASC_NODE": 54.1542, "ARG_OF_PERICENTER": 21.4234, "MEAN_ANOMALY": 338.6976, "EPHEMERIS_TYPE": 0, "CLASSIFICATION_TYPE": "U", "NORAD_CAT_ID": 43689, "ELEMENT_SET_NO": 999, "REV_AT_EPOCH": 36973, "BSTAR": 8.1090432e-05, "MEAN_MOTION_DOT": 1.34e-06, "MEAN_MOTION_DDOT": 0}, "tle": {"line1": "1 43689U 18087A   25356.53533448  .00000134  00000+0  81090-4 0  9999", "line2": "2 43689  98.6915  54.1542 0000769  21.4234 338.6976 14.21488011369739"}}, "geometry": {"type": "Point", "coordinates": [-116.0931632656111, 46.60740337391113]}}, {"type": "Feature", "properties": {"norad_id": 43823, "name": "GEO-KOMPSAT-2A", "group": "weather", "lat": 0.03218852893609682, "lon": -145.8760795024595, "alt_km": 35787.39588762517, "timestamp": "2025-12-22T23:36:20.342318+00:00", "meta": {"OBJECT_NAME": "GEO-KOMPSAT-2A", "OBJECT_ID": "2018-100A", "EPOCH": "2025-12-22T12:31:42.879648", "MEAN_MOTION": 1.00270091, "ECCENTRICITY": 3.785e-05, "INCLINATION": 0.0513, "RA_OF_ASC_NODE": 127.1383, "ARG_OF_PERICENTER": 328.0909, "MEAN_ANOMALY": 312.2897, "EPHEMERIS_TYPE": 0, "CLASSIFICATION_TYPE": "U", "NORAD_CAT_ID": 43823, "ELEMENT_SET_NO": 999, "REV_AT_EPOCH": 2585, "BSTAR": 0, "MEAN_MOTION_DOT": -3.22e-06, "MEAN_MOTION_DDOT": 0}, "tle": {"line1": "1 43823U 18100A   25356.52202407 -.00000322  00000+0  00000+0 0  9999", "line2": "2 43823   0.0513 127.1383 0000378 328.0909 312.2897  1.00270091 25857"}}, "geometry": {"type": "Point", "coordinates": [-145.8760795024595, 0.03218852893609682]}}, {"type": "Feature", "properties": {"norad_id": 44387, "name": "METEOR-M2 2", "group": "weather", "lat": -49.0168822870477, "lon": -12.774152234702635, "alt_km": 818.9194527275213, "timestamp": "2025-12-22T23:36:20.342328+00:00", "meta": {"OBJECT_NAME": "METEOR-M2 2", "OBJECT_ID": "2019-038A", "EPOCH": "2025-12-22T20:28:02.149824", "MEAN_MOTION": 14.2429573, "ECCENTRICITY": 0.0001721, "INCLINATION": 98.8977, "RA_OF_ASC_NODE": 336.7052, "ARG_OF_PERICENTER": 128.9954, "MEAN_ANOMALY": 231.1378, "EPHEMERIS_TYPE": 0, "CLASSIFICATION_TYPE": "U", "NORAD_CAT_ID": 44387, "ELEMENT_SET_NO": 999, "REV_AT_EPOCH": 33619, "BSTAR": 9.446e-05, "MEAN_MOTION_DOT": 1.72e-06, "MEAN_MOTION_DDOT": 0}, "tle": {"line1": "1 44387U 19038A   25356.85280266  .00000172  00000+0  94460-4 0  9991", "line2": "2 44387  98.8977 336.7052 0001721 128.9954 231.1378 14.24295730336195"}}, "geometry": {"type": "Point", "coordinates": [-12.774152234702635, -49.0168822870477]}}, {"type": "Feature", "properties": {"norad_id": 47719, "name": "ARKTIKA-M 1", "group": "weather", "lat": 22.802958926037924, "lon": -109.60746040186773, "alt_km": 11953.955762975798, "timestamp": "2025-12-22T23:36:20.342342+00:00", "meta": {"OBJECT_NAME": "ARKTIKA-M 1", "OBJECT_ID": "2021-016A", "EPOCH": "2025-12-22T01:06:25.193952", "MEAN_MOTION": 2.00630804, "ECCENTRICITY": 0.72089477, "INCLINATION": 63.1758, "RA_OF_ASC_NODE": 82.7279, "ARG_OF_PERICENTER": 269.1606, "MEAN_ANOMALY": 15.5458, "EPHEMERIS_TYPE": 0, "CLASSIFICATION_TYPE": "U", "NORAD_CAT_ID": 47719, "ELEMENT_SET_NO": 999, "REV_AT_EPOCH": 3523, "BSTAR": 0, "MEAN_MOTION_DOT": -8.3e-07, "MEAN_MOTION_DDOT": 0}, "tle": {"line1": "1 47719U 21016A   25356.04612493 -.00000083  00000+0  00000+0 0  9998", "line2": "2 47719  63.1758  82.7279 7208947 269.1606  15.5458  2.00630804 35236"}}, "geometry": {"type": "Point", "coordinates": [-109.60746040186773, 22.802958926037924]}}, {"type": "Feature", "properties": {"norad_id": 49008, "name": "FENGYUN 3E", "group": "weather", "lat": 71.03067925327792, "lon": -156.00754246717605, "alt_km": 818.8911750733805, "timestamp": "2025-12-22T23:36:20.342354+00:00", "meta": {"OBJECT_NAME": "FENGYUN 3E", "OBJECT_ID": "2021-062A", "EPOCH": "2025-12-22T14:38:52.567296", "MEAN_MOTION": 14.19881195, "ECCENTRICITY": 8.242e-05, "INCLINATION": 98.747, "RA_OF_ASC_NODE": 357.0141, "ARG_OF_PERICENTER": 200.6383, "MEAN_ANOMALY": 159.476, "EPHEMERIS_TYPE": 0, "CLASSIFICATION_TYPE": "U", "NORAD_CAT_ID": 49008, "ELEMENT_SET_NO": 999, "REV_AT_EPOCH": 23152, "BSTAR": -1.3738443e-05, "MEAN_MOTION_DOT": -7.3e-07, "MEAN_MOTION_DDOT": 0}, "tle": {"line1": "1 49008U 21062A   25356.61033064 -.00000073  00000+0 -13738-4 0  9993", "line2": "2 49008  98.7470 357.0141 0000824 200.6383 159.4760 14.19881195231527"}}, "geometry": {"type": "Point", "coordinates": [-156.00754246717605, 71.03067925327792]}}, {"type": "Feature", "properties": {"norad_id": 51850, "name": "GOES 18", "group": "weather", "lat": -0.010415042015104741, "lon": -51.141715459360945, "alt_km": 35785.084925483745, "timestamp": "2025-12-22T23:36:20.342369+00:00", "meta": {"OBJECT_NAME": "GOES 18", "OBJECT_ID": "2022-021A", "EPOCH": "2025-12-22T11:42:38.740896", "MEAN_MOTION": 1.00270635, "ECCENTRICITY": 3.173e-05, "INCLINATION": 0.0066, "RA_OF_ASC_NODE": 90.9101, "ARG_OF_PERICENTER": 235.7783, "MEAN_ANOMALY": 163.2679, "EPHEMERIS_TYPE": 0, "CLASSIFICATION_TYPE": "U", "NORAD_CAT_ID": 51850, "ELEMENT_SET_NO": 999, "REV_AT_EPOCH": 482, "BSTAR": 0, "MEAN_MOTION_DOT": 1.18e-06, "MEAN_MOTION_DDOT": 0}, "tle": {"line1": "1 51850U 22021A   25356.48794839  .00000118  00000+0  00000+0 0  9997", "line2": "2 51850   0.0066  90.9101 0000317 235.7783 163.2679  1.00270635  4821"}}, "geometry": {"type": "Point", "coordinates": [-51.141715459360945, -0.010415042015104741]}}]}